{"type": "FeatureCollection", "features": [ {"type": "Feature", "properties": {"norad_id": 38149, "name": "FENGYUN 1C DEB", "group": "fengyun-1c-debris", "lat": -50.39647991757197, "lon": 3.153032665168481, "alt_km": 867.7361704498626, "timestamp": "2025-12-27T08:36:18.672120+00:00", "meta": {"OBJECT_NAME": "FENGYUN 1C DEB", "OBJECT_ID": "1999-025EQW", "EPOCH": "2025-12-24T16:51:08.815968", "MEAN_MOTION": 14.25930229, "ECCENTRICITY": 0.00785452, "INCLINATION": 98.3575, "RA_OF_ASC_NODE": 350.3849, "ARG_OF_PERICENTER": 126.3504, "MEAN_ANOMALY": 234.4959, "EPHEMERIS_TYPE": 0, "CLASSIFICATION_TYPE": "U", "NORAD_CAT_ID": 38149, "ELEMENT_SET_NO": 999, "REV_AT_EPOCH": 70658, "BSTAR": 0.0001943926, "MEAN_MOTION_DOT": 4.38e-06, "MEAN_MOTION_DDOT": 0}, "tle": {"line1": "1 38149U 99025EQW 25358.70218537  .00000438  00000+0  19439-3 0  9999", "line2": "2 38149  98.3575 350.3849 0078545 126.3504 234.4959 14.25930229706585"}}, "geometry": {"type": "Point", "coordinates": [3.153032665168481, -50.39647991757197]}}, {"type": "Feature", "properties": {"norad_id": 38155, "name": "FENGYUN 1C DEB", "group": "fengyun-1c-debris", "lat": -25.464943505259555, "lon": 81.10147799092937, "alt_km": 849.6846940586574, "timestamp": "2025-12-27T08:36:18.672130+00:00", "meta": {"OBJECT_NAME": "FENGYUN 1C DEB", "OBJECT_ID": "1999-025ERC", "EPOCH": "2025-12-18T23:08:16.383264", "MEAN_MOTION": 14.25112386, "ECCENTRICITY": 0.00979258, "INCLINATION": 98.4473, "RA_OF_ASC_NODE": 257.0769, "ARG_OF_PERICENTER": 108.7402, "MEAN_ANOMALY": 252.4435, "EPHEMERIS_TYPE": 0, "CLASSIFICATION_TYPE": "U", "NORAD_CAT_ID": 38155, "ELEMENT_SET_NO": 999, "REV_AT_EPOCH": 63864, "BSTAR": 0.0016814228, "MEAN_MOTION_DOT": 4.107e-05, "MEAN_MOTION_DDOT": 0}, "tle": {"line1": "1 38155U 99025ERC 25352.96407851  .00004107  00000+0  16814-2 0  9997", "line2": "2 38155  98.4473 257.0769 0097925 108.7402 252.4435 14.25112386638644"}}, "geometry": {"type": "Point", "coordinates": [81.10147799092937, -25.464943505259555]}}, {"type": "Feature", "properties": {"norad_id": 38157, "name": "FENGYUN 1C DEB", "group": "fengyun-1c-debris", "lat": 77.00844917756693, "lon": -137.8510325308168, "alt_km": 616.2907588559974, "timestamp": "2025-12-27T08:36:18.672140+00:00", "meta": {"OBJECT_NAME": "FENGYUN 1C DEB", "OBJECT_ID": "1999-025ERE", "EPOCH": "2025-12-26T17:02:24.487296", "MEAN_MOTION": 14.21794202, "ECCENTRICITY": 0.02743017, "INCLINATION": 99.6564, "RA_OF_ASC_NODE": 268.9975, "ARG_OF_PERICENTER": 75.2, "MEAN_ANOMALY": 287.9391, "EPHEMERIS_TYPE": 0, "CLASSIFICATION_TYPE": "U", "NORAD_CAT_ID": 38157, "ELEMENT_SET_NO": 999, "REV_AT_EPOCH": 76446, "BSTAR": 0.00079148063, "MEAN_MOTION_DOT": 2.5e-05, "MEAN_MOTION_DDOT": 0}, "tle": {"line1": "1 38157U 99025ERE 25360.71000564  .00002500  00000+0  79148-3 0  9996", "line2": "2 38157  99.6564 268.9975 0274301  75.2000 287.9391 14.21794202764460"}}, "geometry": {"type": "Point", "coordinates": [-137.8510325308168, 77.00844917756693]}}, {"type": "Feature", "properties": {"norad_id": 38159, "name": "FENGYUN 1C DEB", "group": "fengyun-1c-debris", "lat": -80.48178448743978, "lon": -4.861394523671928, "alt_km": 853.9787595634907, "timestamp": "2025-12-27T08:36:18.672150+00:00", "meta": {"OBJECT_NAME": "FENGYUN 1C DEB", "OBJECT_ID": "1999-025ERG", "EPOCH": "2025-12-04T22:05:20.152032", "MEAN_MOTION": 14.03448484, "ECCENTRICITY": 0.005704, "INCLINATION": 99.3156, "RA_OF_ASC_NODE": 230.39, "ARG_OF_PERICENTER": 2.347, "MEAN_ANOMALY": 357.7952, "EPHEMERIS_TYPE": 0, "CLASSIFICATION_TYPE": "U", "NORAD_CAT_ID": 38159, "ELEMENT_SET_NO": 999, "REV_AT_EPOCH": 83002, "BSTAR": 0.0010527, "MEAN_MOTION_DOT": 1.625e-05, "MEAN_MOTION_DDOT": 0}, "tle": {"line1": "1 38159U 99025ERG 25338.92037213  .00001625  00000+0  10527-2 0  9999", "line2": "2 38159  99.3156 230.3900 0057040   2.3470 357.7952 14.03448484830021"}}, "geometry": {"type": "Point", "coordinates": [-4.861394523671928, -80.48178448743978]}}, {"type": "Feature", "properties": {"norad_id": 38163, "name": "FENGYUN 1C DEB", "group": "fengyun-1c-debris", "lat": -41.80374813429406, "lon": 46.26400081379317, "alt_km": 903.6684695369495, "timestamp": "2025-12-27T08:36:18.672160+00:00", "meta": {"OBJECT_NAME": "FENGYUN 1C DEB", "OBJECT_ID": "1999-025ERL", "EPOCH": "2025-12-24T07:21:56.877984", "MEAN_MOTION": 14.05946513, "ECCENTRICITY": 0.00764665, "INCLINATION": 99.1277, "RA_OF_ASC_NODE": 34.9241, "ARG_OF_PERICENTER": 210.1825, "MEAN_ANOMALY": 149.4926, "EPHEMERIS_TYPE": 0, "CLASSIFICATION_TYPE": "U", "NORAD_CAT_ID": 38163, "ELEMENT_SET_NO": 999, "REV_AT_EPOCH": 24704, "BSTAR": 0.00077703552, "MEAN_MOTION_DOT": 1.261e-05, "MEAN_MOTION_DDOT": 0}, "tle": {"line1": "1 38163U 99025ERL 25358.30690831  .00001261  00000+0  77704-3 0  9996", "line2": "2 38163  99.1277  34.9241 0076466 210.1825 149.4926 14.05946513247049"}}, "geometry": {"type": "Point", "coordinates": [46.26400081379317, -41.80374813429406]}}, {"type": "Feature", "properties": {"norad_id": 38166, "name": "FENGYUN 1C DEB", "group": "fengyun-1c-debris", "lat": 73.93907693452024, "lon": 71.35024658794522, "alt_km": 771.7908586045614, "timestamp": "2025-12-27T08:36:18.672171+00:00", "meta": {"OBJECT_NAME": "FENGYUN 1C DEB", "OBJECT_ID": "1999-025ERP", "EPOCH": "2025-12-25T17:39:29.269152", "MEAN_MOTION": 14.31108062, "ECCENTRICITY": 0.00517597, "INCLINATION": 99.0777, "RA_OF_ASC_NODE": 103.3893, "ARG_OF_PERICENTER": 5.2769, "MEAN_ANOMALY": 354.8948, "EPHEMERIS_TYPE": 0, "CLASSIFICATION_TYPE": "U", "NORAD_CAT_ID": 38166, "ELEMENT_SET_NO": 999, "REV_AT_EPOCH": 63958, "BSTAR": 0.0026339768, "MEAN_MOTION_DOT": 7.006e-05, "MEAN_MOTION_DDOT": 0}, "tle": {"line1": "1 38166U 99025ERP 25359.73575543  .00007006  00000+0  26340-2 0  9991", "line2": "2 38166  99.0777 103.3893 0051759   5.2769 354.8948 14.31108062639586"}}, "geometry": {"type": "Point", "coordinates": [71.35024658794522, 73.93907693452024]}}, {"type": "Feature", "properties": {"norad_id": 38169, "name": "FENGYUN 1C DEB", "group": "fengyun-1c-debris", "lat": -8.386556306554246, "lon": 155.73512552314276, "alt_km": 680.9149808808843, "timestamp": "2025-12-27T08:36:18.672181+00:00", "meta": {"OBJECT_NAME": "FENGYUN 1C DEB", "OBJECT_ID": "1999-025ERS", "EPOCH": "2025-12-17T04:37:40.598400", "MEAN_MOTION": 14.71570377, "ECCENTRICITY": 0.00320132, "INCLINATION": 98.9779, "RA_OF_ASC_NODE": 325.865, "ARG_OF_PERICENTER": 54.7995, "MEAN_ANOMALY": 305.6199, "EPHEMERIS_TYPE": 0, "CLASSIFICATION_TYPE": "U", "NORAD_CAT_ID": 38169, "ELEMENT_SET_NO": 999, "REV_AT_EPOCH": 61334, "BSTAR": 0.002130707, "MEAN_MOTION_DOT": 0.00013312, "MEAN_MOTION_DDOT": 0}, "tle": {"line1": "1 38169U 99025ERS 25351.19283100  .00013312  00000+0  21307-2 0  9996", "line2": "2 38169  98.9779 325.8650 0032013  54.7995 305.6199 14.71570377613347"}}, "geometry": {"type": "Point", "coordinates": [155.73512552314276, -8.386556306554246]}}, {"type": "Feature", "properties": {"norad_id": 38173, "name": "FENGYUN 1C DEB", "group": "fengyun-1c-debris", "lat": 44.672951862559394, "lon": 91.26648471839164, "alt_km": 712.2744569903925, "timestamp": "2025-12-27T08:36:18.672191+00:00", "meta": {"OBJECT_NAME": "FENGYUN 1C DEB", "OBJECT_ID": "1999-025ERW", "EPOCH": "2025-12-25T22:34:52.894272", "MEAN_MOTION": 14.372448, "ECCENTRICITY": 0.016339, "INCLINATION": 98.9989, "RA_OF_ASC_NODE": 260.77, "ARG_OF_PERICENTER": 74.007, "MEAN_ANOMALY": 287.9045, "EPHEMERIS_TYPE": 0, "CLASSIFICATION_TYPE": "U", "NORAD_CAT_ID": 38173, "ELEMENT_SET_NO": 999, "REV_AT_EPOCH": 60833, "BSTAR": 0.00095573, "MEAN_MOTION_DOT": 3.27e-05, "MEAN_MOTION_DDOT": 0}, "tle": {"line1": "1 38173U 99025ERW 25359.94088998  .00003270  00000+0  95573-3 0  9999", "line2": "2 38173  98.9989 260.7700 0163390  74.0070 287.9045 14.37244800608336"}}, "geometry": {"type": "Point", "coordinates": [91.26648471839164, 44.672951862559394]}}, {"type": "Feature", "properties": {"norad_id": 38493, "name": "FENGYUN 1C DEB", "group": "fengyun-1c-debris", "lat": 1.7173892114015272, "lon": -40.46967994536666, "alt_km": 1312.83656350394, "timestamp": "2025-12-27T08:36:18.672201+00:00", "meta": {"OBJECT_NAME": "FENGYUN 1C DEB", "OBJECT_ID": "1999-025ESC", "EPOCH": "2025-12-27T03:18:28.518048", "MEAN_MOTION": 13.62327807, "ECCENTRICITY": 0.0426544, "INCLINATION": 99.0815, "RA_OF_ASC_NODE": 319.5988, "ARG_OF_PERICENTER": 207.7519, "MEAN_ANOMALY": 150.0269, "EPHEMERIS_TYPE": 0, "CLASSIFICATION_TYPE": "U", "NORAD_CAT_ID": 38493, "ELEMENT_SET_NO": 999, "REV_AT_EPOCH": 56694, "BSTAR": 0.00025435, "MEAN_MOTION_DOT": 3.22e-06, "MEAN_MOTION_DDOT": 0}, "tle": {"line1": "1 38493U 99025ESC 25361.13783007  .00000322  00000+0  25435-3 0  9996", "line2": "2 38493  99.0815 319.5988 0426544 207.7519 150.0269 13.62327807566942"}}, "geometry": {"type": "Point", "coordinates": [-40.46967994536666, 1.7173892114015272]}}, {"type": "Feature", "properties": {"norad_id": 38494, "name": "FENGYUN 1C DEB", "group": "fengyun-1c-debris", "lat": -34.23455682416917, "lon": 124.68310136353114, "alt_km": 1000.15030923842, "timestamp": "2025-12-27T08:36:18.672211+00:00", "meta": {"OBJECT_NAME": "FENGYUN 1C DEB", "OBJECT_ID": "1999-025ESD", "EPOCH": "2025-12-24T02:24:03.074112", "MEAN_MOTION": 14.00504572, "ECCENTRICITY": 0.03833507, "INCLINATION": 98.4389, "RA_OF_ASC_NODE": 307.463, "ARG_OF_PERICENTER": 337.3093, "MEAN_ANOMALY": 21.1511, "EPHEMERIS_TYPE": 0, "CLASSIFICATION_TYPE": "U", "NORAD_CAT_ID": 38494, "ELEMENT_SET_NO": 999, "REV_AT_EPOCH": 7313, "BSTAR": 0.0049089492, "MEAN_MOTION_DOT": 0.00013814, "MEAN_MOTION_DDOT": 0}, "tle": {"line1": "1 38494U 99025ESD 25358.10003558  .00013814  00000+0  49089-2 0  9996", "line2": "2 38494  98.4389 307.4630 0383350 337.3093  21.1511 14.00504572 73137"}}, "geometry": {"type": "Point", "coordinates": [124.68310136353114, -34.23455682416917]}}]}